STARLINK-36945          
1 68050U 26041L   26066.58334491 -.01414494  61666-3 -28731-2 0  9999
2 68050  53.1595  73.0244 0000552  71.2139 178.6134 15.98911590  2037
STARLINK-35911          
1 68051U 26041M   26066.58334491 -.01418422  62161-3 -28372-2 0  9997
2 68051  53.1595  73.0178 0000570  68.9398 184.1640 15.99184419  1995
STARLINK-35808          
1 68052U 26041N   26066.58334491 -.01406362  61277-3 -27935-2 0  9999
2 68052  53.1591  73.0144 0000575  59.5471 195.0160 15.99305669  1998
STARLINK-36919          
1 68053U 26041P   26066.58334491 -.01425877  62937-3 -28100-2 0  9991
2 68053  53.1593  73.0112 0000657  65.9559 190.2209 15.99447385  2034
STARLINK-36924          
1 68054U 26041Q   26066.58334491 -.01401413  61127-3 -27255-2 0  9992
2 68054  53.1593  73.0057 0000635  57.1714 201.8072 15.99675978  2033
STARLINK-35998          
1 68055U 26041R   26066.58334491 -.01403012  61172-3 -27480-2 0  9990
2 68055  53.1593  73.0082 0000535  59.2251 198.2902 15.99551942  1999
STARLINK-36845          
1 68056U 26041S   26066.58334491 -.01405072  61500-3 -27137-2 0  9993
2 68056  53.1591  73.0027 0000569  68.5703 191.8297 15.99798501  2035
STARLINK-36954          
1 68057U 26041T   26066.58334491 -.01406702  61712-3 -26980-2 0  9995
2 68057  53.1592  72.9995 0000593  62.9676 198.8900 15.99921036  2032
STARLINK-36899          
1 68058U 26041U   26066.58334491 -.01405556  61692-3 -26793-2 0  9991
2 68058  53.1593  72.9972 0000608  65.1313 197.9576 16.00027980  2036
STARLINK-36917          
1 68059U 26041V   26066.58334491 -.01402091  61505-3 -26519-2 0  9992
2 68059  53.1592  72.9939 0000681  69.1165 195.6356 16.00164223  2032
STARLINK-36959          
1 68060U 26041W   26066.58334491 -.01385522  60250-3 -26048-2 0  9996
2 68060  53.1591  72.9908 0000386  55.8903 210.1397 16.00266654  2032
STARLINK-36915          
1 68061U 26041X   26066.58334491 -.01396843  61238-3 -26072-2 0  9999
2 68061  53.1591  72.9878 0000633  67.6819 199.8025 16.00394206  2037
STARLINK-36952          
1 68062U 26041Y   26066.58334491 -.01381253  60076-3 -25594-2 0  9996
2 68062  53.1592  72.9849 0000537  63.1818 205.8697 16.00518443  2034
STARLINK-37000          
1 68063U 26041Z   26066.58334491 -.01383525  60345-3 -25438-2 0  9997
2 68063  53.1591  72.9813 0000536  63.3204 207.3200 16.00653434  2032
STARLINK-36996          
1 68064U 26041AA  26066.58334491 -.01394525  61317-3 -25441-2 0  9994
2 68064  53.1591  72.9781 0000555  64.0998 208.1653 16.00790097  2034
STARLINK-36836          
1 68065U 26041AB  26066.58334491 -.01389312  61062-3 -24989-2 0  9996
2 68065  53.1592  72.9718 0000577  65.0203 210.1455 16.01034353  2030
